SUOMI NPP
1 37849U 11061A   26254.26260364  .00000030  00000+0  35455-4 0  9996
2 37849  98.7997 194.5654 0002847  80.9527 279.1972 14.19532509770659
NOAA 20 (JPSS-1)
1 43013U 17073A   26254.27623727  .00000024  00000+0  32433-4 0  9998
2 43013  98.7809 192.9864 0001636  54.2924 305.8404 14.19525306456684
NOAA 21 (JPSS-2)
1 54234U 22150A   26254.23712693  .00000021  00000+0  30666-4 0  9997
2 54234  98.7093 191.5893 0001277 350.3775   9.7377 14.19548777198755
AQUA
1 27424U 02022A   26254.20038013  .00000518  00000+0  11265-3 0  9992
2 27424  98.4383 225.2452 0001664  70.8933 299.2911 14.62197212295841
TERRA
1 25994U 99068A   26254.23765230  .00000233  00000+0  56258-4 0  9995
2 25994  97.9376 300.3387 0001625 357.1822  77.2957 14.61158132422173
