{"type": "FeatureCollection", "features": [{"type": "Feature", "geometry": {"type": "Polygon", "coordinates": [[[72.6365, 21.1032], [72.64896183860921, 21.088317367809243], [72.64651843406114, 21.08678950400058], [72.64386354263655, 21.085608144134824], [72.64105321217198, 21.08479822615862], [72.63814676826308, 21.084376846715696], [72.63520556312895, 21.08435290063939], [72.63229168193044, 21.08472689340147], [72.6365, 21.1032]]]}, "properties": {"eventId": "TH-61E9D0", "frp": 37.0, "riskLevel": "HIGH", "windSpeedKmh": 7.0, "downwindBearingDeg": 167.0}}, {"type": "Feature", "geometry": {"type": "Polygon", "coordinates": [[[72.6461, 21.1054], [72.6579528267477, 21.091244984271835], [72.65562883651259, 21.089791808559607], [72.65310369146621, 21.088668197791858], [72.65043070103371, 21.087897871253283], [72.64766629248447, 21.087497090133752], [72.64486882084495, 21.087474314613658], [72.64209733832905, 21.087830025464623], [72.6461, 21.1054]]]}, "properties": {"eventId": "TH-E42AC2", "frp": 27.8, "riskLevel": "HIGH", "windSpeedKmh": 7.0, "downwindBearingDeg": 167.0}}, {"type": "Feature", "geometry": {"type": "Polygon", "coordinates": [[[79.254, 10.424], [79.22935665996744, 10.4304931042853], [79.23057360275988, 10.433937213800553], [79.23228528128453, 10.43717149310418], [79.23445556128132, 10.440127637270573], [79.23703861947479, 10.442743213471152], [79.23997991071059, 10.444962980086915], [79.24321731971986, 10.446740054006286], [79.254, 10.424]]]}, "properties": {"eventId": "TH-361DAE", "frp": 106.2, "riskLevel": "HIGH", "windSpeedKmh": 9.3, "downwindBearingDeg": 310.0}}, {"type": "Feature", "geometry": {"type": "Polygon", "coordinates": [[[79.0684, 14.5366], [79.0596137297797, 14.533163539937062], [79.05919195429448, 14.534432470099501], [79.0589646168736, 14.535747174698459], [79.05893652152872, 14.537079892047203], [79.05910826512496, 14.538402479594374], [79.05947622447604, 14.539687008196362], [79.06003263256196, 14.540906351925223], [79.0684, 14.5366]]]}, "properties": {"eventId": "TH-D3FE18", "frp": 41.2, "riskLevel": "HIGH", "windSpeedKmh": 3.4, "downwindBearingDeg": 273.0}}, {"type": "Feature", "geometry": {"type": "Polygon", "coordinates": [[[96.0509, 27.7644], [96.05130412437757, 27.769513645563535], [96.05213745341928, 27.769407824043185], [96.05294464791774, 27.769196248965013], [96.05370866048384, 27.768883388700896], [96.05441335606577, 27.76847585067351], [96.05504385280375, 27.767982241758673], [96.05558683637014, 27.767412986451596], [96.0509, 27.7644]]]}, "properties": {"eventId": "TH-98B26C", "frp": 30.5, "riskLevel": "HIGH", "windSpeedKmh": 1.9, "downwindBearingDeg": 29.0}}, {"type": "Feature", "geometry": {"type": "Polygon", "coordinates": [[[76.8158, 29.6842], [76.83815964490447, 29.68419812293873], [76.83792294406601, 29.681382810857976], [76.83721911820322, 29.67862702530527], [76.83606306549484, 29.675988952197653], [76.83447922738355, 29.673524287611105], [76.83250106998628, 29.67128506261899], [76.83017037566799, 29.669318545790162], [76.8158, 29.6842]]]}, "properties": {"eventId": "TH-01B8CE", "frp": 35.8, "riskLevel": "HIGH", "windSpeedKmh": 7.2, "downwindBearingDeg": 115.0}}, {"type": "Feature", "geometry": {"type": "Polygon", "coordinates": [[[78.0029, 21.1177], [78.00930023681133, 21.118538961726532], [78.00936298814179, 21.117664802085763], [78.00928926244063, 21.116791388269082], [78.00908061891818, 21.115937163738973], [78.00874146559977, 21.11512016643407], [78.00827896606171, 21.114357647907703], [78.00770288801118, 21.113665709094846], [78.0029, 21.1177]]]}, "properties": {"eventId": "TH-7D77B4", "frp": 26.9, "riskLevel": "HIGH", "windSpeedKmh": 2.4, "downwindBearingDeg": 107.0}}, {"type": "Feature", "geometry": {"type": "Polygon", "coordinates": [[[78.0007, 21.1061], [78.00633604099215, 21.10683885964435], [78.0063913037597, 21.10606901524611], [78.00632638491868, 21.105299827128217], [78.00614265717547, 21.10454753788734], [78.00584400193031, 21.103828033031736], [78.00543672717492, 21.103156505562907], [78.00492943417288, 21.10254713519819], [78.0007, 21.1061]]]}, "properties": {"eventId": "TH-E89AD4", "frp": 21.9, "riskLevel": "HIGH", "windSpeedKmh": 2.4, "downwindBearingDeg": 107.0}}, {"type": "Feature", "geometry": {"type": "Polygon", "coordinates": [[[77.9669, 8.6055], [77.94979746436326, 8.624279142721974], [77.95273083246673, 8.626531655709368], [77.95596345653769, 8.628340029932984], [77.95942706613863, 8.629666071849346], [77.9630485096742, 8.630481774606872], [77.96675130008157, 8.630769909896488], [77.97045723116952, 8.630524392038689], [77.9669, 8.6055]]]}, "properties": {"eventId": "TH-8ADDCC", "frp": 22.3, "riskLevel": "HIGH", "windSpeedKmh": 11.3, "downwindBearingDeg": 343.0}}, {"type": "Feature", "geometry": {"type": "Polygon", "coordinates": [[[96.6657, 28.0137], [96.66587776351241, 28.01819386870313], [96.6666136588965, 28.01812367384216], [96.6673302584378, 28.017960061732765], [96.66801242820634, 28.017706487741535], [96.66864576165716, 28.017368307132454], [96.66921688396314, 28.016952661929857], [96.66971373452299, 28.01646833003852], [96.6657, 28.0137]]]}, "properties": {"eventId": "TH-83B124", "frp": 26.8, "riskLevel": "HIGH", "windSpeedKmh": 0.4, "downwindBearingDeg": 27.0}}, {"type": "Feature", "geometry": {"type": "Polygon", "coordinates": [[[77.9002, 10.1135], [77.88478528050615, 10.111366891705924], [77.88463394699761, 10.113588787943815], [77.88481131777036, 10.11580881690825], [77.88531365402378, 10.117980098345065], [77.8861303541695, 10.120056780465305], [77.88724417718845, 10.121995008305511], [77.88863160628341, 10.123753849989088], [77.9002, 10.1135]]]}, "properties": {"eventId": "TH-964BE8", "frp": 27.6, "riskLevel": "HIGH", "windSpeedKmh": 6.0, "downwindBearingDeg": 287.0}}, {"type": "Feature", "geometry": {"type": "Polygon", "coordinates": [[[77.2482, 10.2588], [77.25234154473941, 10.260700322436199], [77.25257770570568, 10.260089612409606], [77.2527214227523, 10.259451670497356], [77.25276966158276, 10.258799968064968], [77.2527214041366, 10.258148266974185], [77.2525776700383, 10.25751032897403], [77.25234149501722, 10.256899625101326], [77.2482, 10.2588]]]}, "properties": {"eventId": "TH-E97353", "frp": 50.2, "riskLevel": "HIGH", "windSpeedKmh": 0.9, "downwindBearingDeg": 90.0}}, {"type": "Feature", "geometry": {"type": "Polygon", "coordinates": [[[77.2508, 10.2572], [77.2549415238052, 10.259100322440377], [77.25517768357912, 10.258489612414275], [77.25532139990082, 10.257851670502337], [77.25536963848901, 10.257199968070054], [77.25532138128813, 10.256548266979165], [77.2551776479176, 10.255910328978699], [77.2549414740912, 10.255299625105506], [77.2508, 10.2572]]]}, "properties": {"eventId": "TH-6BD45C", "frp": 94.1, "riskLevel": "HIGH", "windSpeedKmh": 0.9, "downwindBearingDeg": 90.0}}, {"type": "Feature", "geometry": {"type": "Polygon", "coordinates": [[[77.243, 10.2612], [77.24493121221411, 10.25712468342319], [77.24431058581615, 10.256892294039577], [77.24366228526253, 10.256750868112285], [77.243, 10.256703391970408], [77.24233771473746, 10.256750868112285], [77.24168941418384, 10.256892294039577], [77.24106878778588, 10.25712468342319], [77.243, 10.2612]]]}, "properties": {"eventId": "TH-2778BB", "frp": 26.5, "riskLevel": "HIGH", "windSpeedKmh": 0.5, "downwindBearingDeg": 180.0}}, {"type": "Feature", "geometry": {"type": "Polygon", "coordinates": [[[78.1608, 10.9415], [78.1435019813386, 10.944494144088], [78.14412654107525, 10.946923995168975], [78.14510320880419, 10.949239316617627], [78.14641136710247, 10.951391213200182], [78.14802339638709, 10.95333423988648], [78.14990525777637, 10.9550273618384], [78.15201721171957, 10.956434821308017], [78.1608, 10.9415]]]}, "properties": {"eventId": "TH-B1A46E", "frp": 27.3, "riskLevel": "HIGH", "windSpeedKmh": 6.8, "downwindBearingDeg": 305.0}}, {"type": "Feature", "geometry": {"type": "Polygon", "coordinates": [[[79.797, 14.7754], [79.7704941216997, 14.7704165217723], [79.77002679171676, 14.774183672210278], [79.77012903791069, 14.777976540069243], [79.77079873072853, 14.781715031680777], [79.77202175633624, 14.785320197556448], [79.7737723123123, 14.788715899943574], [79.77601345050044, 14.791830421315032], [79.797, 14.7754]]]}, "properties": {"eventId": "TH-009062", "frp": 25.7, "riskLevel": "HIGH", "windSpeedKmh": 10.7, "downwindBearingDeg": 284.0}}, {"type": "Feature", "geometry": {"type": "Polygon", "coordinates": [[[74.3692, 30.8591], [74.36826781504067, 30.84765499867903], [74.36634558314486, 30.847891801874], [74.36448360619954, 30.84836525862331], [74.36272119083418, 30.849065374477835], [74.36109554405186, 30.849977370052333], [74.35964098833182, 30.85108199271731], [74.35838823734287, 30.852355922670505], [74.3692, 30.8591]]]}, "properties": {"eventId": "TH-D86E48", "frp": 21.8, "riskLevel": "HIGH", "windSpeedKmh": 5.2, "downwindBearingDeg": 209.0}}, {"type": "Feature", "geometry": {"type": "Polygon", "coordinates": [[[77.7011, 8.845], [77.69143345271152, 8.85970745000383], [77.69369282730713, 8.860936487945844], [77.69610863730628, 8.86182898651631], [77.6986298628974, 8.862366096567717], [77.7012032570276, 8.862536474523996], [77.70377447039812, 8.862336522052058], [77.70628919978628, 8.861770462089686], [77.7011, 8.845]]]}, "properties": {"eventId": "TH-4ED23B", "frp": 22.5, "riskLevel": "HIGH", "windSpeedKmh": 7.8, "downwindBearingDeg": 352.0}}, {"type": "Feature", "geometry": {"type": "Polygon", "coordinates": [[[78.8231, 9.3428], [78.8092737205015, 9.354658894662759], [78.8111615760281, 9.356510968517462], [78.81330156153439, 9.358073504480588], [78.81564848500904, 9.359313502817638], [78.8181527823125, 9.360204775261947], [78.8207615642134, 9.360728498325193], [78.8234197337976, 9.360873611018143], [78.8231, 9.3428]]]}, "properties": {"eventId": "TH-C8898B", "frp": 31.5, "riskLevel": "HIGH", "windSpeedKmh": 6.7, "downwindBearingDeg": 336.0}}, {"type": "Feature", "geometry": {"type": "Polygon", "coordinates": [[[78.6451, 9.533], [78.62128665736532, 9.55201549512478], [78.62433270937248, 9.555218368598482], [78.62781738367295, 9.557952045426932], [78.63166708982436, 9.560158787402754], [78.63580052240411, 9.56179198473958], [78.64013037894176, 9.562817141213772], [78.64456520496975, 9.563212603324004], [78.6451, 9.533]]]}, "properties": {"eventId": "TH-AECBD1", "frp": 54.8, "riskLevel": "HIGH", "windSpeedKmh": 11.2, "downwindBearingDeg": 334.0}}]}